line1,line2,validFromUtcTime
1 00000U 00000E   26001.00000000  .00000000  00000-0  27772-4 0    01,2 00000  88.9641  15.3306 0010061 270.0077  82.6333 13.55303470    03,2026-01-01T00:00:00Z
1 00000U 00000E   26002.00000000  .00000000  00000-0  27772-4 0    02,2 00000  88.9641  15.2253 0010061 267.0970 281.7242 13.55303508    04,2026-01-02T00:00:00Z
